[{"OBJECT_NAME":"FLOCK 4H-24","OBJECT_ID":"2025-276BP","EPOCH":"2026-03-09T18:13:36.505920","MEAN_MOTION":15.18576009,"ECCENTRICITY":0.00040024,"INCLINATION":97.4303,"RA_OF_ASC_NODE":144.0349,"ARG_OF_PERICENTER":19.0995,"MEAN_ANOMALY":341.0389,"EPHEMERIS_TYPE":0,"CLASSIFICATION_TYPE":"U","NORAD_CAT_ID":66727,"ELEMENT_SET_NO":999,"REV_AT_EPOCH":1532,"BSTAR":0.00041158083,"MEAN_MOTION_DOT":8.446e-5,"MEAN_MOTION_DDOT":0},{"OBJECT_NAME":"SL-8 DEB","OBJECT_ID":"1971-114D","EPOCH":"2026-03-09T21:09:22.343904","MEAN_MOTION":15.17425388,"ECCENTRICITY":0.00068282,"INCLINATION":73.9839,"RA_OF_ASC_NODE":358.0676,"ARG_OF_PERICENTER":210.5814,"MEAN_ANOMALY":149.4984,"EPHEMERIS_TYPE":0,"CLASSIFICATION_TYPE":"U","NORAD_CAT_ID":5858,"ELEMENT_SET_NO":999,"REV_AT_EPOCH":89033,"BSTAR":0.0013634837,"MEAN_MOTION_DOT":0.00027356,"MEAN_MOTION_DDOT":0}]
